NORAD_CAT_ID,OBJECT_NAME,OBJECT_TYPE,EPOCH,MEAN_MOTION,ECCENTRICITY,INCLINATION,RA_OF_ASC_NODE,ARG_OF_PERICENTER,MEAN_ANOMALY,BSTAR,MEAN_MOTION_DOT,MEAN_MOTION_DDOT,TLE_LINE0,TLE_LINE1,TLE_LINE2,SEMIMAJOR_AXIS,PERIOD,APOGEE,PERIGEE,DECAYED
53259.0,STARLINK-4140,PAYLOAD,2023-08-01 02:30:47,15.08842426,0.0001318,53.2163,145.596,103.5599,256.554,2.9856e-05,1.87e-06,0.0,0 STARLINK-4140,1 53259U 22086T   23213.10471145  .00000187  00000-0  29856-4 0  9996,2 53259  53.2163 145.5960 0001318 103.5599 256.5540 15.08842426 57235,6917.873,95.437,540.65,538.826,0.0
53259.0,STARLINK-4140,PAYLOAD,2023-08-02 00:46:11,15.08835671,0.0001043,53.2158,141.4295,94.9911,265.12,1.6263e-05,-2.9e-07,0.0,0 STARLINK-4140,1 53259U 22086T   23214.03207896 -.00000029  00000-0  16263-4 0  9993,2 53259  53.2158 141.4295 0001043  94.9911 265.1200 15.08835671 57379,6917.894,95.438,540.48,539.037,0.0
53259.0,STARLINK-4140,PAYLOAD,2023-08-03 02:12:21,15.08847592,0.0001186,53.2177,136.6756,92.2616,267.8512,0.00012123,1.642e-05,0.0,0 STARLINK-4140,1 53259U 22086T   23215.09191185  .00001642  00000-0  12123-3 0  9994,2 53259  53.2177 136.6756 0001186  92.2616 267.8512 15.08847592 57537,6917.857,95.437,540.543,538.902,0.0
53259.0,STARLINK-4140,PAYLOAD,2023-08-04 02:03:09,15.08837161,9.71e-05,53.2168,132.2153,93.6637,266.4466,4.4184e-05,4.15e-06,0.0,0 STARLINK-4140,1 53259U 22086T   23216.08552460  .00000415  00000-0  44184-4 0  9991,2 53259  53.2168 132.2153 0000971  93.6637 266.4466 15.08837161 57689,6917.889,95.438,540.426,539.082,0.0
53259.0,STARLINK-4140,PAYLOAD,2023-08-05 01:53:55,15.08850956,0.000106,53.2173,127.7529,93.6381,266.4733,7.2624e-05,8.69e-06,0.0,0 STARLINK-4140,1 53259U 22086T   23217.07911709  .00000869  00000-0  72624-4 0  9999,2 53259  53.2173 127.7529 0001060  93.6381 266.4733 15.08850956 57838,6917.847,95.437,540.445,538.979,0.0
53259.0,STARLINK-4140,PAYLOAD,2023-08-06 03:20:05,15.08859386,0.0001032,53.2157,122.9945,111.3625,248.7477,0.00035433,5.359e-05,0.0,0 STARLINK-4140,1 53259U 22086T   23218.13894899  .00005359  00000-0  35433-3 0  9992,2 53259  53.2157 122.9945 0001032 111.3625 248.7477 15.08859386 57998,6917.821,95.436,540.4,538.972,0.0
53259.0,STARLINK-4140,PAYLOAD,2023-08-06 11:17:02,15.08829674,0.000172,53.2159,121.5077,92.7898,267.329,-5.2368e-05,-1.121e-05,0.0,0 STARLINK-4140,1 53259U 22086T   23218.47016739 -.00001121  00000-0 -52368-4 0  9990,2 53259  53.2159 121.5077 0001720  92.7898 267.3290 15.08829674 58043,6917.912,95.438,540.967,538.587,0.0
53259.0,STARLINK-4140,PAYLOAD,2023-08-07 00:00:08,15.08820321,0.0001103,53.2169,119.1318,84.3527,275.7591,-0.00031817,-5.345e-05,0.0,0 STARLINK-4140,1 53259U 22086T   23219.00009443 -.00005345  00000-0 -31817-3 0  9991,2 53259  53.2169 119.1318 0001103  84.3527 275.7591 15.08820321 58122,6917.941,95.439,540.569,539.042,0.0
53259.0,STARLINK-4140,PAYLOAD,2023-08-08 01:26:18,15.08844487,9.8e-05,53.2158,114.3736,73.1123,286.9976,0.00036172,5.474e-05,0.0,0 STARLINK-4140,1 53259U 22086T   23220.05993268  .00005474  00000-0  36172-3 0  9995,2 53259  53.2158 114.3736 0000980  73.1123 286.9976 15.08844487 58288,6917.867,95.437,540.41,539.054,0.0
53259.0,STARLINK-4140,PAYLOAD,2023-08-09 01:17:04,15.08883881,9.71e-05,53.216,109.913,66.9613,293.1481,0.0011816,0.0001859,0.0,0 STARLINK-4140,1 53259U 22086T   23221.05352051  .00018590  00000-0  11816-2 0  9995,2 53259  53.2160 109.9130 0000971  66.9613 293.1481 15.08883881 58432,6917.746,95.435,540.283,538.94,0.0
53259.0,STARLINK-4140,PAYLOAD,2023-08-09 09:13:59,15.08858004,0.0001537,53.2163,108.4261,71.8838,288.2322,8.6049e-05,1.082e-05,0.0,0 STARLINK-4140,1 53259U 22086T   23221.38472197  .00001082  00000-0  86049-4 0  9995,2 53259  53.2163 108.4261 0001537  71.8838 288.2322 15.08858004 58480,6917.825,95.436,540.754,538.627,0.0
53259.0,STARLINK-4140,PAYLOAD,2023-08-10 02:43:14,15.08845871,9.06e-05,53.2161,105.1537,89.1056,271.004,0.00030788,4.616e-05,0.0,0 STARLINK-4140,1 53259U 22086T   23222.11336098  .00004616  00000-0  30788-3 0  9990,2 53259  53.2161 105.1537 0000906  89.1056 271.0040 15.08845871 58598,6917.862,95.437,540.354,539.101,0.0
53259.0,STARLINK-4140,PAYLOAD,2023-08-10 15:26:19,15.08840731,0.0001572,53.2144,102.7765,79.2021,280.9148,0.00018531,2.662e-05,0.0,0 STARLINK-4140,1 53259U 22086T   23222.64328503  .00002662  00000-0  18531-3 0  9991,2 53259  53.2144 102.7765 0001572  79.2021 280.9148 15.08840731 58674,6917.878,95.438,540.831,538.656,0.0
53259.0,STARLINK-4140,PAYLOAD,2023-08-11 08:55:34,15.0883769,0.0001387,53.2144,99.5053,79.7388,280.376,0.00017435,2.488e-05,0.0,0 STARLINK-4140,1 53259U 22086T   23223.37192877  .00002488  00000-0  17435-3 0  9993,2 53259  53.2144  99.5053 0001387  79.7388 280.3760 15.08837690 58788,6917.887,95.438,540.712,538.793,0.0
53259.0,STARLINK-4140,PAYLOAD,2023-08-12 15:07:54,15.08842235,0.0001028,53.2148,93.8553,80.7886,279.3223,0.00017862,2.556e-05,0.0,0 STARLINK-4140,1 53259U 22086T   23224.63048828  .00002556  00000-0  17862-3 0  9999,2 53259  53.2148  93.8553 0001028  80.7886 279.3223 15.08842235 58975,6917.874,95.437,540.45,539.027,0.0
53259.0,STARLINK-4140,PAYLOAD,2023-08-13 21:20:13,15.08840623,0.0001004,53.2133,88.2053,83.1764,276.9342,6.7489e-05,7.87e-06,0.0,0 STARLINK-4140,1 53259U 22086T   23225.88904811  .00000787  00000-0  67489-4 0  9995,2 53259  53.2133  88.2053 0001004  83.1764 276.9342 15.08840623 59164,6917.878,95.438,540.438,539.049,0.0
53259.0,STARLINK-4140,PAYLOAD,2023-08-14 22:46:23,15.08844363,0.0001297,53.2137,83.4476,92.5615,267.5526,0.0001483,2.073e-05,0.0,0 STARLINK-4140,1 53259U 22086T   23226.94888751  .00002073  00000-0  14830-3 0  9998,2 53259  53.2137  83.4476 0001297  92.5615 267.5526 15.08844363 59320,6917.867,95.437,540.629,538.835,0.0
53259.0,STARLINK-4140,PAYLOAD,2023-08-15 14:40:15,15.08839967,0.0001204,53.2157,80.4727,95.7664,264.3465,8.6518e-05,1.089e-05,0.0,0 STARLINK-4140,1 53259U 22086T   23227.61128969  .00001089  00000-0  86518-4 0  9990,2 53259  53.2157  80.4727 0001204  95.7664 264.3465 15.08839967 59427,6917.88,95.438,540.578,538.913,0.0
53259.0,STARLINK-4140,PAYLOAD,2023-08-17 00:03:21,15.08838734,0.0001206,53.2156,74.2286,86.6381,273.4749,0.00010486,1.381e-05,0.0,0 STARLINK-4140,1 53259U 22086T   23229.00233167  .00001381  00000-0  10486-3 0  9997,2 53259  53.2156  74.2286 0001206  86.6381 273.4749 15.08838734 59634,6917.884,95.438,540.584,538.915,0.0
53259.0,STARLINK-4140,PAYLOAD,2023-08-18 17:23:23,15.08836397,0.0001164,53.2182,66.4965,96.7123,263.4002,3.466e-05,2.64e-06,0.0,0 STARLINK-4140,1 53259U 22086T   23230.72457753  .00000264  00000-0  34660-4 0  9997,2 53259  53.2182  66.4965 0001164  96.7123 263.4002 15.08836397 59891,6917.891,95.438,540.562,538.951,0.0
53259.0,STARLINK-4140,PAYLOAD,2023-08-19 17:14:12,15.08721134,0.0002027,53.2178,62.0371,72.6161,287.5052,0.0016778,0.00026428,0.0,0 STARLINK-4140,1 53259U 22086T   23231.71819508  .00026428  00000-0  16778-2 0  9995,2 53259  53.2178  62.0371 0002027  72.6161 287.5052 15.08721134 60046,6918.244,95.445,541.511,538.706,0.0
53259.0,STARLINK-4140,PAYLOAD,2023-08-19 22:00:19,15.08850812,0.0001141,53.2177,61.1445,79.4881,280.624,-6.9866e-05,-1.4e-05,0.0,0 STARLINK-4140,1 53259U 22086T   23231.91689597 -.00001400  00000-0 -69866-4 0  9993,2 53259  53.2177  61.1445 0001141  79.4881 280.6240 15.08850812 60079,6917.847,95.437,540.502,538.923,0.0
53259.0,STARLINK-4140,PAYLOAD,2023-08-21 12:09:35,15.0884133,0.0001364,53.2166,54.0086,78.538,281.5765,0.0001307,1.793e-05,0.0,0 STARLINK-4140,1 53259U 22086T   23233.50665895  .00001793  00000-0  13070-3 0  9993,2 53259  53.2166  54.0086 0001364  78.5380 281.5765 15.08841330 60314,6917.876,95.437,540.685,538.798,0.0
53259.0,STARLINK-4140,PAYLOAD,2023-08-22 12:00:22,15.0884159,0.0001042,53.2177,49.5436,124.2634,235.8456,-1.1297e-05,-4.68e-06,0.0,0 STARLINK-4140,1 53259U 22086T   23234.50025664 -.00000468  00000-0 -11297-4 0  9998,2 53259  53.2177  49.5436 0001042 124.2634 235.8456 15.08841590 60461,6917.876,95.437,540.461,539.02,0.0
53259.0,STARLINK-4140,PAYLOAD,2023-08-24 10:06:33,15.08836796,0.000114,53.2188,40.924,103.5882,256.5237,0.00010031,1.309e-05,0.0,0 STARLINK-4140,1 53259U 22086T   23236.42122224  .00001309  00000-0  10031-3 0  9998,2 53259  53.2188  40.9240 0001140 103.5882 256.5237 15.08836796 60936,6917.89,95.438,540.544,538.967,0.0
53259.0,STARLINK-4140,PAYLOAD,2023-08-25 09:57:20,15.08837847,0.0001109,53.2189,36.4634,102.5809,257.5308,6.5915e-05,7.61e-06,0.0,0 STARLINK-4140,1 53259U 22086T   23237.41482501  .00000761  00000-0  65915-4 0  9998,2 53259  53.2189  36.4634 0001109 102.5809 257.5308 15.08837847 61082,6917.887,95.438,540.519,538.985,0.0
53259.0,STARLINK-4140,PAYLOAD,2023-08-25 17:54:16,15.08842179,0.0001032,53.2179,34.9758,93.9621,266.1489,9.1001e-05,1.161e-05,0.0,0 STARLINK-4140,1 53259U 22086T   23237.74602216  .00001161  00000-0  91001-4 0  9991,2 53259  53.2179  34.9758 0001032  93.9621 266.1489 15.08842179 60956,6917.874,95.437,540.453,539.025,0.0
53259.0,STARLINK-4140,PAYLOAD,2023-08-26 09:48:08,15.08837859,0.0001241,53.2183,32.0028,64.6575,295.4545,0.0001013,1.325e-05,0.0,0 STARLINK-4140,1 53259U 22086T   23238.40842710  .00001325  00000-0  10130-3 0  9995,2 53259  53.2183  32.0028 0001241  64.6575 295.4545 15.08837859 61054,6917.887,95.438,540.61,538.893,0.0
53259.0,STARLINK-4140,PAYLOAD,2023-08-26 12:58:54,15.08839263,0.000126,53.2183,31.4084,63.7186,296.3936,0.00010891,1.446e-05,0.0,0 STARLINK-4140,1 53259U 22086T   23238.54090622  .00001446  00000-0  10891-3 0  9995,2 53259  53.2183  31.4084 0001260  63.7186 296.3936 15.08839263 61255,6917.883,95.438,540.619,538.876,0.0
53259.0,STARLINK-4140,PAYLOAD,2023-08-26 17:45:03,15.088453,0.0001266,53.2184,30.5161,63.2359,296.8763,0.00015752,2.22e-05,0.0,0 STARLINK-4140,1 53259U 22086T   23238.73962167  .00002220  00000-0  15752-3 0  9990,2 53259  53.2184  30.5161 0001266  63.2359 296.8763 15.08845300 61101,6917.864,95.437,540.605,538.853,0.0
